FLOCK 4G-11             
1 62629U 25009W   26068.45629261  .00012672  00000+0  47740-3 0  9990
2 62629  97.3964 150.6183 0001611 333.5407  26.5750 15.27220677 63680
STARLINK-36143          
1 67056U 25294AC  26068.31637605  .00017745  00000+0  65286-3 0  9992
2 67056  43.0039  40.0490 0001542 252.6337 107.4346 15.27577073 14747
